NEE 02 KRYSAOR
1 39441U 13066AB  23088.82800313  .00004870  00000-0  66439-3 0  9993
2 39441  97.7752  37.1915 0077358 301.9850  57.3858 14.77026525503296
PUCP-SAT 1
1 39442U 13066AC  23088.48609678  .00010689  00000-0  96516-3 0  9991
2 39442  97.4765  84.6536 0030066  27.1181 333.1603 14.95315382506730
QUBESCOUT-S1
1 39443U 13066AD  23088.77364535  .00026284  00000-0  18123-2 0  9999
2 39443  97.4197 105.5206 0011679 326.4798  33.5689 15.05733918508788
FUNCUBE 1
1 39444U 13066AE  23088.48388859  .00006862  00000-0  77444-3 0  9995
2 39444  97.6637  55.5092 0054016 173.4866 186.7064 14.85785904503800
HINCUBE
1 39445U 13066AF  23088.44126921  .00007157  00000-0  81241-3 0  9990
2 39445  97.6652  55.2501 0054051 176.2140 183.9496 14.85538190503738
UWE-3
1 39446U 13066AG  23088.40936049  .00005527  00000-0  68770-3 0  9998
2 39446  97.7262  46.0596 0064585 239.1081 120.3771 14.81427556502611
COSMOS 1030 DEB
1 39447U 78083T   23085.30056661  .00000492  00000-0  00000-0 0  9993
2 39447  65.5746 307.1786 6445684   8.9580 358.6460  2.00388589 59123
BPA 3/SL-24
1 39448U 13066AJ  23088.16067850  .00000199  00000-0  10320-3 0  9996
2 39448  97.6895 148.0597 0678676 230.7440 123.1583 13.42721736458037
SL-24 DEB
1 39450U 13066AL  23088.78732586  .00008137  00000-0  67076-3 0  9992
2 39450  97.4131 114.9167 0012479 347.2963  12.7945 14.99229819510158
SWARM B
1 39451U 13067A   23088.51798461  .00005293  00000-0  22811-3 0  9997
2 39451  87.7528 336.0112 0002733  81.5631 278.5924 15.22362773518881
SWARM A
1 39452U 13067B   23088.52002878  .00009986  00000-0  28474-3 0  9993
2 39452  87.3543 122.5536 0003270  86.7210 273.4417 15.35916971525620
SWARM C
1 39453U 13067C   23088.51994276  .00009998  00000-0  28507-3 0  9995
2 39453  87.3391 121.4433 0003278  86.9253 273.2375 15.35919492525580
SHIYAN 5 (SY-5)
1 39455U 13068A   23088.83584655  .00000771  00000-0  24611-3 0  9991
2 39455  98.2044 355.5066 0013301 277.3945  82.5735 14.42266279492176
CZ-3B R/B
1 39459U 13070B   23087.16575125 -.00009345  00000-0  00000-0 0  9995
2 39459  30.7495 276.9434 7222982  63.0080  16.0478  0.03584747 36647
SES 8
1 39460U 13071A   23088.52082771 -.00000277  00000-0  00000-0 0  9994
2 39460   0.0308 249.5819 0002121 145.3051  74.2507  1.00269825 32641
FIREBIRD A
1 39463U 13072B   23088.32919049  .00054914  00000-0  20493-2 0  9999
2 39463 120.4304 188.5830 0127303 258.0398 100.6379 15.19653058194110
AEROCUBE 5A
1 39465U 13072D   23088.48907107  .00535845  00000-0  54292-2 0  9991
2 39465 120.4631 326.2314 0045361 225.9465 133.7887 15.61926345192796
INMARSAT 5-F1
1 39476U 13073A   23088.10952132  .00000020  00000-0  00000-0 0  9999
2 39476   0.0174 172.0230 0000578 173.7986 302.4577  1.00272711 33790
BREEZE-M DEB (TANK)
1 39477U 13073B   23088.21979262  .00003449  00000-0  93574-3 0  9994
2 39477  50.6848 179.3129 5153550  76.5280 333.9234  5.32894015178939
TKSAT 1
1 39481U 13075A   23088.52480062 -.00000202  00000-0  00000-0 0  9994
2 39481   0.0381 333.7976 0003176  18.9371 295.6607  1.00272664 33800
COSMOS 2488
1 39483U 13076A   23088.85630318  .00000048  00000-0  27079-3 0  9999
2 39483  82.4888 181.1483 0020420 135.4702 224.8021 12.42895205420084
COSMOS 2489
1 39484U 13076B   23088.82889387  .00000051  00000-0  29336-3 0  9991
2 39484  82.4934 182.1865 0022632 136.6899 223.5966 12.42881742420141
COSMOS 2490
1 39485U 13076C   23088.88182602 -.00000988  00000-0 -72014-2 0  9995
2 39485  82.4875 180.7394 0022297 150.4429 209.8067 12.42862285420091
BREEZE-KM R/B
1 39486U 13076D   23088.29418533  .00000009  00000-0 -25852-5 0  9990
2 39486  82.4881  17.2741 0231823 245.3663 112.3135 12.82961597433469
EXPRESS AM-5
1 39487U 13077A   23088.38635853 -.00000288  00000-0  00000+0 0  9999
2 39487   0.0188 259.5650 0001393 111.6725  94.3871  1.00269472 34540
BREEZE-M R/B
1 39488U 13077B   23088.37902295 -.00000179  00000-0  00000-0 0  9996
2 39488   7.4267  68.1015 0538570 158.4760 203.9926  0.89565651 30144
COSMOS 2493 (SKRL 756)
1 39490U 13078A   23088.87842417  .00004112  00000-0  41463-3 0  9995
2 39490  82.4178 320.4341 0015276 225.6230 134.3738 14.90824581502520
COSMOS 2494 (SKRL 756)
1 39491U 13078B   23088.90433465  .00004947  00000-0  47934-3 0  9994
2 39491  82.4169 313.5483 0020219 198.8376 161.2098 14.92378434502886
AIST 1
1 39492U 13078C   23088.96770740  .00002901  00000-0  30241-3 0  9992
2 39492  82.4198 323.2984 0017800 238.0307 121.9153 14.89365631502264
BREEZE-M R/B
1 39494U 13073C   23087.76727385 -.00000063  00000-0  00000+0 0  9997
2 39494  29.8245 306.9985 7629473 330.7969   2.6899  1.09861226 36396
COSMOS 2491
1 39497U 13076E   23088.51751375  .00000024  00000-0  10000-3 0  9994
2 39497  82.4916 181.5680 0014059 133.4793 226.7455 12.43465262419899
GSAT 14
1 39498U 14001A   23088.50813439 -.00000085  00000-0  00000-0 0  9997
2 39498   0.0119 133.7142 0004778 169.6349 140.1921  1.00272038 33592
THAICOM 6
1 39500U 14002A   23088.87603337 -.00000128  00000-0  00000+0 0  9993
2 39500   0.0601 112.6310 0001647 301.7011 166.5366  1.00272206 33730
TDRS 12
1 39504U 14004A   23088.49371946 -.00000276  00000-0  00000-0 0  9990
2 39504   3.6603 352.9197 0003199  99.7652 230.6825  1.00267619 32482
ATLAS 5 CENTAUR R/B
1 39505U 14004B   23088.27323638 -.00000156  00000-0  00000-0 0  9999
2 39505  24.3327 194.9418 5730423 319.3912   9.6533  2.06526277 69258
ABS 2
1 39508U 14006A   23088.87524889 -.00000093  00000-0  00000+0 0  9990
2 39508   0.0355  88.7312 0002789 278.8869 209.3881  1.00272545 33534
ATHENA-FIDUS
1 39509U 14006B   23088.50940912  .00000146  00000-0  00000-0 0  9999
2 39509   0.0174 176.9952 0001613 192.4731  38.3477  1.00274153 33288
ARIANE 5 R/B
1 39510U 14006C   23087.97680059  .00004109  00000-0  15652-2 0  9998
2 39510   6.4570 293.5856 7184101 121.7007 326.9531  2.39378880 77922
ARIANE 5 DEB (SYLDA)
1 39511U 14006D   23087.99377668  .00019387  00000-0  65719-2 0  9993
2 39511   5.7290 218.0736 5841975 267.0323  28.7368  4.24599129110767
TURKSAT 4A
1 39522U 14007A   23088.51019361  .00000138  00000-0  00000-0 0  9992
2 39522   0.0557 262.4393 0003549  55.3814  94.4849  1.00274079 33190
BREEZE-M R/B
1 39523U 14007B   23088.23426287 -.00000106  00000-0  00000-0 0  9997
2 39523  12.2242 151.0928 4674174 257.5849  48.0370  1.88489498 62768
BREEZE-M DEB (TANK)
1 39524U 14007C   23088.46436694  .00002229  00000-0  10629-2 0  9993
2 39524  49.3002 238.6332 6103045 355.4950   0.7791  3.83975308125244
NAVSTAR 69 (USA 248)
1 39533U 14008A   23087.53517814 -.00000021  00000-0  00000-0 0  9994
2 39533  53.6039 197.2626 0064181 211.4147 148.2010  2.00569433 66082
DELTA 4 R/B
1 39534U 14008B   23088.40644001 -.00000020  00000-0  00000-0 0  9990
2 39534  53.0858 209.7305 0222686  91.6273 270.9033  1.90803462 63427
FENGYUN 1C DEB
1 39536U 99025EWD 23084.26502221  .00002556  00000-0  25687-2 0  9996
2 39536  99.8595  95.4117 0249864 270.5844  86.6676 13.65705011481835
FENGYUN 1C DEB
1 39537U 99025EWE 23088.22596339  .00004286  00000-0  38133-2 0  9992
2 39537  99.0834 256.6970 0190177 100.1423 262.1239 13.77306561456024
FENGYUN 1C DEB
1 39539U 99025EWG 23083.05538771  .00168569  00000-0  92484-2 0  9990
2 39539  98.9390  14.3173 0063401  14.3951 345.9062 15.11665987467831
FENGYUN 1C DEB
1 39540U 99025EWH 23068.28514211  .00002906  00000-0  39487-2 0  9999
2 39540 106.1757  72.2887 0432477 242.0466 127.7538 13.28175203556556
FENGYUN 1C DEB
1 39541U 99025EWJ 23066.84518214  .00002710  00000-0  13528-2 0  9998
2 39541  98.7916 113.7670 0076928  94.8977 266.0985 14.16134752472390
FENGYUN 1C DEB
1 39543U 99025EWL 23086.93503595  .00002018  00000-0  16317-2 0  9998
2 39543  99.1418 160.6271 0349498 215.2005 142.5600 13.66470554356354
FENGYUN 1C DEB
1 39544U 99025EWM 23086.95167290  .00000864  00000-0  57319-3 0  9994
2 39544  98.8470 345.9441 0053747 264.0894  95.4145 14.03354984429488
COSMOS 2251 DEB
1 39546U 93036BUC 23087.88349810  .00007450  00000-0  13344-2 0  9992
2 39546  74.0022 280.4174 0067845 324.8905  34.7800 14.65463580654729
COSMOS 2251 DEB
1 39547U 93036BUD 23080.96856395  .00010901  00000-0  25791-2 0  9990
2 39547  74.0226 159.8407 0009781 138.0596  35.1842 14.54138732571556
COSMOS 2251 DEB
1 39550U 93036BUG 23062.13969902  .00016014  00000-0  38299-2 0  9990
2 39550  74.1114 349.0350 0109753 210.4517 149.0242 14.49945658467768
COSMOS 2251 DEB
1 39552U 93036BUJ 23085.87799899  .00014283  00000-0  22500-2 0  9998
2 39552  74.0309 306.1047 0028193   7.2399   4.6187 14.72221127613806
COSMOS 2251 DEB
1 39553U 93036BUK 23087.14343675  .00004673  00000-0  29544-2 0  9995
2 39553  74.0295 236.7485 0215734 236.4423 121.5943 13.93541355617878
COSMOS 2251 DEB
1 39554U 93036BUL 23087.36805904  .00013475  00000-0  27511-2 0  9990
2 39554  74.0375  52.7400 0016013  78.9699  78.3295 14.60858891497465
GPM
1 39574U 14009C   23088.53782939  .00028393  00000-0  39667-3 0  9998
2 39574  64.9956 297.7880 0012048 267.8613  92.1154 15.56683139515974
COSMOS 2251 DEB
1 39582U 93036BUM 23087.07161493  .00016263  00000-0  27377-2 0  9995
2 39582  74.0219 342.7623 0061742 334.9401  24.8774 14.68288292559004
COSMOS 2251 DEB
1 39583U 93036BUN 23086.88300360  .00005493  00000-0  14849-2 0  9995
2 39583  73.9405 314.7843 0185294 287.2762  70.8191 14.38329280474361
COSMOS 2251 DEB
1 39584U 93036BUP 23077.31842645  .00057330  00000-0  50358-2 0  9993
2 39584  74.0817 280.9479 0022884 259.2065 274.3757 14.96074886500058
COSMOS 2251 DEB
1 39585U 93036BUQ 23088.08006136  .00002849  00000-0  65315-3 0  9992
2 39585  74.0459  18.6591 0070722  30.5234 330.0015 14.54505522481127
COSMOS 2251 DEB
1 39586U 93036BUR 23088.03827497  .00002202  00000-0  10307-2 0  9992
2 39586  74.0123 200.0164 0105843 203.5096 330.6112 14.17924540469281
